[Satellite]
VERSION=1.1
NAME=CZ-6A DEB
NICKNAME=CZ-6A DEB
TLE1=1 54276U 22151T   22342.49065360  .00000358  00000+0  35811-3 0  9997
TLE2=2 54276  98.7407 345.0923 0208784   8.9666 351.5124 13.74484200  3109
STATUS=0
